ITASAT                  
1 43786U 18099AE  26068.37895645  .00008243  00000+0  41168-3 0  9993
2 43786  97.4161 121.9137 0012266 347.5066  12.5862 15.17669542397762
MBZ-SAT                 
1 62626U 25009T   26068.71170241 -.00000059  00000+0  33147-6 0  9991
2 62626  97.4030 149.1701 0002163 323.4829  36.6257 15.18507845 63599
